YAOGAN-30 08C           
1 46809U 20076C   26069.19107862  .00004470  00000+0  33479-3 0  9992
2 46809  34.9973 334.0134 0007510 281.9296  78.0570 15.02144355293249
TIANQI-6                
1 46810U 20076D   26069.01795031  .00005574  00000+0  37169-3 0  9992
2 46810  34.9994 296.7728 0010590  10.0262 350.0658 15.06418360293618
CE-SAT IIB              
1 46818U 20077F   26068.75480814  .00068981  00000+0  39536-3 0  9992
2 46818  97.2135 145.8612 0004280 159.2096 200.9346 15.78607824299506
NAVSTAR 80 (USA 309)    
1 46826U 20078A   26065.79616590  .00000022  00000+0  00000+0 0  9997
2 46826  54.0012 214.9287 0068325 204.3590 325.2473  2.00565568 39454
RISAT-2BR2              
1 46905U 20081A   26069.25571123  .00004415  00000+0  33939-3 0  9997
2 46905  36.8979  91.5680 0010788  59.2579 300.9223 15.01608589292597
KSM1-C                  
1 46906U 20081B   26069.09169569  .00013745  00000+0  54205-3 0  9992
2 46906  36.8938 309.9264 0000853  79.7130 280.3715 15.24931692294025
KSM1-D                  
1 46907U 20081C   26069.10109678  .00011876  00000+0  49426-3 0  9992
2 46907  36.8969 317.0866 0002228 146.1981 213.8910 15.23172165293971
KSM1-A                  
1 46912U 20081H   26069.11305594  .00012196  00000+0  49118-3 0  9998
2 46912  36.8963 311.4919 0002824 255.8133 104.2301 15.24265512294043
R2                      
1 46913U 20081J   26069.03772151  .00010792  00000+0  44080-3 0  9990
2 46913  36.8980 311.4728 0005240 172.3192 187.7637 15.23827534296849
KSM1-B                  
1 46914U 20081K   26069.09162586  .00011478  00000+0  48036-3 0  9999
2 46914  36.9028 317.5241 0004435 175.1013 184.9780 15.22990631297060
TIANTONG-1 2            
1 46916U 20082A   26069.31452729 -.00000354  00000+0  00000+0 0  9995
2 46916   0.9408 315.3990 0003441  37.7743  52.9699  1.00268789 19665
DRAGRACER 2 (AUGURY)    
1 46955U 20085AC  26069.09214773  .00035449  00000+0  37227-3 0  9998
2 46955  97.5850 257.3794 0004673 273.2019  86.8704 15.64266926296340
SENTINEL-6A             
1 46984U 20086A   26069.16330745 -.00000043  00000+0  78702-4 0  9994
2 46984  66.0446 340.7287 0007784 270.9230  89.0893 12.80929751247643
STARLINK-1777           
1 47122U 20088A   26068.97658740  .00115207  00000+0  18763-2 0  9994
2 47122  53.0539 282.3170 0001637 241.6842 118.4002 15.51791294292137
STARLINK-1812           
1 47126U 20088E   26068.90575686  .00039367  00000+0  20820-2 0  9997
2 47126  53.0793 298.6686 0002749 128.8313 231.2926 15.15107348291903
STARLINK-1843           
1 47133U 20088M   26069.33337963  .00356152  00000+0  13020-2 0  9995
2 47133  53.0427 239.9262 0004163 320.5514 160.1117 15.86918596  5985
STARLINK-1845           
1 47135U 20088P   26068.99195754  .00124754  00000+0  18287-2 0  9999
2 47135  53.0525 275.9355 0001816 225.2137 134.8725 15.54662370292222
STARLINK-1856           
1 47143U 20088X   26069.33337963  .00111155  00000+0  19796-2 0  9994
2 47143  53.0513 270.1430 0006766 156.4346 269.2218 15.49267609  5643
STARLINK-1871           
1 47157U 20088AM  26069.23811706  .00014037  00000+0  48539-3 0  9999
2 47157  53.1584 293.8211 0001262  91.5500 268.5646 15.30184068292005
STARLINK-1873           
1 47158U 20088AN  26068.91979211  .00062301  00000+0  84582-3 0  9995
2 47158  53.0491 267.7390 0008627 148.5172 211.6356 15.57021972292336
STARLINK-1876           
1 47161U 20088AR  26069.21165042  .00102799  00000+0  10852-2 0  9996
2 47161  53.0522 269.1798 0000946  82.8037 277.3085 15.63432077292347
STARLINK-1888           
1 47171U 20088BB  26068.89816594  .00076565  00000+0  14211-2 0  9999
2 47171  53.0534 278.4893 0004873 159.2034 200.9172 15.48275914292188
STARLINK-1912           
1 47178U 20088BJ  26068.00714212  .00117861  00000+0  16669-2 0  9997
2 47178  53.0525 284.7515 0008215 157.4332 202.7041 15.55634663292016
STARLINK-1913           
1 47179U 20088BK  26069.06643716  .00003973  00000+0  14626-3 0  9995
2 47179  53.1591 305.3074 0001156  99.9564 260.1567 15.30186499291826
LUCAS (JDRS-1)          
1 47202U 20089A   26069.01433479 -.00000234  00000+0  00000+0 0  9996
2 47202   0.0799 271.9941 0003091  79.2320 272.3954  1.00271701 19428
FALCON EYE 2            
1 47226U 20090A   26068.10160965  .00002123  00000+0  25544-3 0  9992
2 47226  97.8521 144.2551 0001153  93.9066 266.2280 14.84956326285380
GONETS-M 20             
1 47227U 20091A   26069.31706535  .00000049  00000+0  27909-3 0  9999
2 47227  82.5100   3.8920 0021934  37.7617 322.4997 12.42890039238795
GONETS-M 21             
1 47228U 20091B   26069.29029218  .00000006  00000+0 -30525-4 0  9996
2 47228  82.5026   2.6765 0015846  51.6116 308.6384 12.42881173238785
GONETS-M 22             
1 47229U 20091C   26069.26387596 -.00000057  00000+0 -48131-3 0  9998
2 47229  82.5082   3.5454 0022730  33.2978 326.9526 12.42887463238739
COSMOS 2548             
1 47230U 20091D   26069.24018714  .00000039  00000+0  21263-3 0  9996
2 47230  82.5060   3.1887 0016107  51.2158 309.0357 12.42927330238769
