OBJECT_NAME,OBJECT_ID,EPOCH,MEAN_MOTION,ECCENTRICITY,INCLINATION,RA_OF_ASC_NODE,ARG_OF_PERICENTER,MEAN_ANOMALY,EPHEMERIS_TYPE,CLASSIFICATION_TYPE,NORAD_CAT_ID,ELEMENT_SET_NO,REV_AT_EPOCH,BSTAR,MEAN_MOTION_DOT,MEAN_MOTION_DDOT
YAOGAN-30 08C,2020-076C,2026-03-10T04:35:09.192768,15.02144355,.00075102,34.9973,334.0134,281.9296,78.0570,0,U,46809,999,29324,.33479441E-3,.447E-4,0
TIANQI-6,2020-076D,2026-03-10T00:25:50.906784,15.06418360,.00105908,34.9994,296.7728,10.0262,350.0658,0,U,46810,999,29361,.37168961E-3,.5574E-4,0
CE-SAT IIB,2020-077F,2026-03-09T18:06:55.423296,15.78607824,.00042807,97.2135,145.8612,159.2096,200.9346,0,U,46818,999,29950,.39535619E-3,.68981E-3,0
NAVSTAR 80 (USA 309),2020-078A,2026-03-06T19:06:28.733760,2.00565568,.0068325,54.0012,214.9287,204.3590,325.2473,0,U,46826,999,3945,0,.22E-6,0
RISAT-2BR2,2020-081A,2026-03-10T06:08:13.450272,15.01608589,.00107884,36.8979,91.5680,59.2579,300.9223,0,U,46905,999,29259,.33939299E-3,.4415E-4,0
KSM1-C,2020-081B,2026-03-10T02:12:02.507616,15.24931692,.00008533,36.8938,309.9264,79.7130,280.3715,0,U,46906,999,29402,.54205341E-3,.13745E-3,0
KSM1-D,2020-081C,2026-03-10T02:25:34.761792,15.23172165,.00022282,36.8969,317.0866,146.1981,213.8910,0,U,46907,999,29397,.49426485E-3,.11876E-3,0
KSM1-A,2020-081H,2026-03-10T02:42:48.033216,15.24265512,.0002824,36.8963,311.4919,255.8133,104.2301,0,U,46912,999,29404,.49117943E-3,.12196E-3,0
R2,2020-081J,2026-03-10T00:54:19.138464,15.23827534,.00052403,36.8980,311.4728,172.3192,187.7637,0,U,46913,999,29684,.44080143E-3,.10792E-3,0
KSM1-B,2020-081K,2026-03-10T02:11:56.474304,15.22990631,.00044358,36.9028,317.5241,175.1013,184.9780,0,U,46914,999,29706,.48035693E-3,.11478E-3,0
TIANTONG-1 2,2020-082A,2026-03-10T07:32:55.157856,1.00268789,.0003441,0.9408,315.3990,37.7743,52.9699,0,U,46916,999,1966,0,-.354E-5,0
DRAGRACER 2 (AUGURY),2020-085AC,2026-03-10T02:12:41.563872,15.64266926,.00046737,97.5850,257.3794,273.2019,86.8704,0,U,46955,999,29634,.37227149E-3,.35449E-3,0
SENTINEL-6A,2020-086A,2026-03-10T03:55:09.763680,12.80929751,.00077846,66.0446,340.7287,270.9230,89.0893,0,U,46984,999,24764,.787018E-4,-.43E-6,0
STARLINK-1777,2020-088A,2026-03-09T23:26:17.151360,15.51791294,.00016375,53.0539,282.3170,241.6842,118.4002,0,U,47122,999,29213,.18763195E-2,.115207E-2,0
STARLINK-1812,2020-088E,2026-03-09T21:44:17.392704,15.15107348,.0002749,53.0793,298.6686,128.8313,231.2926,0,U,47126,999,29190,.2082E-2,.39367E-3,0
STARLINK-1843,2020-088M,2026-03-10T08:00:04.000032,15.86918596,.00041639,53.0427,239.9262,320.5514,160.1117,0,U,47133,999,598,.1302021E-2,.356152E-2,0
STARLINK-1845,2020-088P,2026-03-09T23:48:25.131456,15.54662370,.00018168,53.0525,275.9355,225.2137,134.8725,0,U,47135,999,29222,.18286566E-2,.124754E-2,0
STARLINK-1856,2020-088X,2026-03-10T08:00:04.000032,15.49267609,.00067662,53.0513,270.1430,156.4346,269.2218,0,U,47143,999,564,.19796415E-2,.111155E-2,0
STARLINK-1871,2020-088AM,2026-03-10T05:42:53.313984,15.30184068,.00012626,53.1584,293.8211,91.5500,268.5646,0,U,47157,999,29200,.48539399E-3,.14037E-3,0
STARLINK-1873,2020-088AN,2026-03-09T22:04:30.038304,15.57021972,.0008627,53.0491,267.7390,148.5172,211.6356,0,U,47158,999,29233,.84582E-3,.62301E-3,0
STARLINK-1876,2020-088AR,2026-03-10T05:04:46.596288,15.63432077,.00009469,53.0522,269.1798,82.8037,277.3085,0,U,47161,999,29234,.10852017E-2,.102799E-2,0
STARLINK-1888,2020-088BB,2026-03-09T21:33:21.537216,15.48275914,.0004873,53.0534,278.4893,159.2034,200.9172,0,U,47171,999,29218,.14211E-2,.76565E-3,0
STARLINK-1912,2020-088BJ,2026-03-09T00:10:17.079168,15.55634663,.00082154,53.0525,284.7515,157.4332,202.7041,0,U,47178,999,29201,.16669188E-2,.117861E-2,0
STARLINK-1913,2020-088BK,2026-03-10T01:35:40.170624,15.30186499,.00011564,53.1591,305.3074,99.9564,260.1567,0,U,47179,999,29182,.14626236E-3,.3973E-4,0
LUCAS (JDRS-1),2020-089A,2026-03-10T00:20:38.525856,1.00271701,.00030911,0.0799,271.9941,79.2320,272.3954,0,U,47202,999,1942,0,-.234E-5,0
FALCON EYE 2,2020-090A,2026-03-09T02:26:19.073760,14.84956326,.00011533,97.8521,144.2551,93.9066,266.2280,0,U,47226,999,28538,.2554448E-3,.2123E-4,0
GONETS-M 20,2020-091A,2026-03-10T07:36:34.446240,12.42890039,.00219346,82.5100,3.8920,37.7617,322.4997,0,U,47227,999,23879,.27908539E-3,.49E-6,0
GONETS-M 21,2020-091B,2026-03-10T06:58:01.244352,12.42881173,.00158467,82.5026,2.6765,51.6116,308.6384,0,U,47228,999,23878,-.30525434E-4,.6E-7,0
GONETS-M 22,2020-091C,2026-03-10T06:19:58.882944,12.42887463,.00227306,82.5082,3.5454,33.2978,326.9526,0,U,47229,999,23873,-.4813093E-3,-.57E-6,0
COSMOS 2548,2020-091D,2026-03-10T05:45:52.168896,12.42927330,.00161072,82.5060,3.1887,51.2158,309.0357,0,U,47230,999,23876,.21262844E-3,.39E-6,0
